PHISAT 2                
1 60470U 24149C   26068.78834181  .00008925  00000+0  31421-3 0  9996
2 60470  97.3806 148.6498 0001175 168.6230 191.5037 15.29548631 86792
STARLINK-34861          
1 66368U 25254W   26068.73018316  .00030052  00000+0  10224-2 0  9998
2 66368  53.1574 229.9647 0000928  64.8458 295.2639 15.30208665 19012
